IRIDIUM 150             
1 43257U 18030J   25125.90930373  .00000410  00000+0  13915-3 0  9998
2 43257  86.3928 100.7431 0002454  93.6141 266.5336 14.34219906371780
IRIDIUM 143             
1 43258U 18030K   25125.89027193  .00000354  00000+0  11919-3 0  9993
2 43258  86.3933 100.8279 0002681  94.9867 265.1635 14.34216655371717
IRIDIUM 161             
1 43478U 18047C   25125.85030669  .00000478  00000+0  13597-3 0  9994
2 43478  86.4472 258.6326 0002080  92.4271 267.7168 14.43287413366386
IRIDIUM 152             
1 43479U 18047D   25125.79321630  .00000228  00000+0  74184-4 0  9992
2 43479  86.3949 258.5171 0002019  96.0841 264.0585 14.34215347364093
IRIDIUM 147             
1 43480U 18047E   25125.79956303  .00000100  00000+0  28490-4 0  9993
2 43480  86.3948 258.5123 0002153  90.6949 269.4493 14.34216731364094
IRIDIUM 110             
1 43481U 18047F   25125.80590344  .00000189  00000+0  60450-4 0  9994
2 43481  86.3950 258.5910 0001756  87.0314 273.1083 14.34218713364084
IRIDIUM 162             
1 43482U 18047G   25125.84401611  .00000578  00000+0  16570-3 0  9992
2 43482  86.4471 258.5311 0001904  96.1267 264.0151 14.43279729366375
IRIDIUM 160             
1 43569U 18061A   25125.82151038 -.00000007  00000+0 -94317-5 0  9993
2 43569  86.4005 226.9649 0001921  91.3003 268.8412 14.34217426354983
